{
    "code": "1",
    "data": [{
            "fromDestId": "276",
            "id": "276",
            "isHot": false,
            "name": "阿坝",
            "pinyin": "ABA",
            "provinceName": "四川",
            "seq": -1,
            "shortPinyin": "AB",
            "subName": ""
        },
        {
            "fromDestId": "374",
            "id": "374",
            "isHot": false,
            "name": "阿克苏",
            "pinyin": "AKESU",
            "provinceName": "新疆",
            "seq": -1,
            "shortPinyin": "AKS",
            "subName": ""
        },
        {
            "fromDestId": "382",
            "id": "382",
            "isHot": false,
            "name": "阿拉尔",
            "pinyin": "ALAER",
            "provinceName": "新疆",
            "seq": -1,
            "shortPinyin": "ALE",
            "subName": ""
        },
        {
            "fromDestId": "122",
            "id": "122",
            "isHot": false,
            "name": "阿拉善盟",
            "pinyin": "ALASHANMENG",
            "provinceName": "内蒙古",
            "seq": -1,
            "shortPinyin": "ALSM",
            "subName": ""
        },
        {
            "fromDestId": "380",
            "id": "380",
            "isHot": false,
            "name": "阿勒泰",
            "pinyin": "ALETAI",
            "provinceName": "新疆",
            "seq": -1,
            "shortPinyin": "ALT",
            "subName": ""
        },
        {
            "fromDestId": "254",
            "id": "254",
            "isHot": false,
            "name": "阿里",
            "pinyin": "ALI",
            "provinceName": "西藏",
            "seq": -1,
            "shortPinyin": "AL",
            "subName": ""
        },
        {
            "fromDestId": "338",
            "id": "338",
            "isHot": false,
            "name": "安康",
            "pinyin": "ANKANG",
            "provinceName": "陕西",
            "seq": -1,
            "shortPinyin": "AK",
            "subName": ""
        },
        {
            "fromDestId": "87",
            "id": "87",
            "isHot": false,
            "name": "安庆",
            "pinyin": "ANQING",
            "provinceName": "安徽",
            "seq": -1,
            "shortPinyin": "AQ",
            "subName": ""
        },
        {
            "fromDestId": "125",
            "id": "125",
            "isHot": false,
            "name": "鞍山",
            "pinyin": "ANSHAN",
            "provinceName": "辽宁",
            "seq": -1,
            "shortPinyin": "AS",
            "subName": ""
        },
        {
            "fromDestId": "227",
            "id": "227",
            "isHot": false,
            "name": "安顺",
            "pinyin": "ANSHUN",
            "provinceName": "贵州",
            "seq": -1,
            "shortPinyin": "AS",
            "subName": ""
        },
        {
            "fromDestId": "277",
            "id": "277",
            "isHot": false,
            "name": "安阳",
            "pinyin": "ANYANG",
            "provinceName": "河南",
            "seq": -1,
            "shortPinyin": "AY",
            "subName": ""
        },
        {
            "fromDestId": "144",
            "id": "144",
            "isHot": false,
            "name": "白城",
            "pinyin": "BAICHENG",
            "provinceName": "吉林",
            "seq": -1,
            "shortPinyin": "BC",
            "subName": ""
        },
        {
            "fromDestId": "216",
            "id": "216",
            "isHot": false,
            "name": "百色",
            "pinyin": "BAISE",
            "provinceName": "广西",
            "seq": -1,
            "shortPinyin": "BS",
            "subName": ""
        },
        {
            "fromDestId": "142",
            "id": "142",
            "isHot": false,
            "name": "白山",
            "pinyin": "BAISHAN",
            "provinceName": "吉林",
            "seq": -1,
            "shortPinyin": "BS",
            "subName": ""
        },
        {
            "fromDestId": "343",
            "id": "343",
            "isHot": false,
            "name": "白银",
            "pinyin": "BAIYIN",
            "provinceName": "甘肃",
            "seq": -1,
            "shortPinyin": "BY",
            "subName": ""
        },
        {
            "fromDestId": "82",
            "id": "82",
            "isHot": false,
            "name": "蚌埠",
            "pinyin": "BANGBU",
            "provinceName": "安徽",
            "seq": -1,
            "shortPinyin": "BB",
            "subName": ""
        },
        {
            "fromDestId": "94",
            "id": "94",
            "isHot": false,
            "name": "保定",
            "pinyin": "BAODING",
            "provinceName": "河北",
            "seq": -1,
            "shortPinyin": "BD",
            "subName": ""
        },
        {
            "fromDestId": "332",
            "id": "332",
            "isHot": false,
            "name": "宝鸡",
            "pinyin": "BAOJI",
            "provinceName": "陕西",
            "seq": -1,
            "shortPinyin": "BJ",
            "subName": ""
        },
        {
            "fromDestId": "236",
            "id": "236",
            "isHot": false,
            "name": "保山",
            "pinyin": "BAOSHAN",
            "provinceName": "云南",
            "seq": -1,
            "shortPinyin": "BS",
            "subName": ""
        },
        {
            "fromDestId": "112",
            "id": "112",
            "isHot": false,
            "name": "包头",
            "pinyin": "BAOTOU",
            "provinceName": "内蒙古",
            "seq": -1,
            "shortPinyin": "BT",
            "subName": ""
        },
        {
            "fromDestId": "118",
            "id": "118",
            "isHot": false,
            "name": "巴彦淖尔",
            "pinyin": "BAYANNAOER",
            "provinceName": "内蒙古",
            "seq": -1,
            "shortPinyin": "BYNE",
            "subName": ""
        },
        {
            "fromDestId": "373",
            "id": "373",
            "isHot": false,
            "name": "巴音郭楞",
            "pinyin": "BAYINGUOLENG",
            "provinceName": "新疆",
            "seq": -1,
            "shortPinyin": "BYGL",
            "subName": ""
        },
        {
            "fromDestId": "274",
            "id": "274",
            "isHot": false,
            "name": "巴中",
            "pinyin": "BAZHONG",
            "provinceName": "四川",
            "seq": -1,
            "shortPinyin": "BZ",
            "subName": ""
        },
        {
            "fromDestId": "211",
            "id": "211",
            "isHot": false,
            "name": "北海",
            "pinyin": "BEIHAI",
            "provinceName": "广西",
            "seq": -1,
            "shortPinyin": "BH",
            "subName": ""
        },
        {
            "fromDestId": 13,
            "id": 13,
            "isHot": true,
            "name": "北京",
            "pinyin": "BEIJING",
            "provinceName": "北京",
            "seq": 7,
            "shortPinyin": "bj",
            "subName": ""
        },
        {
            "fromDestId": "127",
            "id": "127",
            "isHot": false,
            "name": "本溪",
            "pinyin": "BENXI",
            "provinceName": "辽宁",
            "seq": -1,
            "shortPinyin": "BX",
            "subName": ""
        },
        {
            "fromDestId": "230",
            "id": "230",
            "isHot": false,
            "name": "毕节",
            "pinyin": "BIJIE",
            "provinceName": "贵州",
            "seq": -1,
            "shortPinyin": "BJ",
            "subName": ""
        },
        {
            "fromDestId": "189",
            "id": "189",
            "isHot": false,
            "name": "滨州",
            "pinyin": "BINZHOU",
            "provinceName": "山东",
            "seq": -1,
            "shortPinyin": "BZ",
            "subName": ""
        },
        {
            "fromDestId": "372",
            "id": "372",
            "isHot": false,
            "name": "博尔塔拉",
            "pinyin": "BOERTALA",
            "provinceName": "新疆",
            "seq": -1,
            "shortPinyin": "BETL",
            "subName": ""
        },
        {
            "fromDestId": "151",
            "id": "151",
            "isHot": false,
            "name": "亳州",
            "pinyin": "BOZHOU",
            "provinceName": "安徽",
            "seq": -1,
            "shortPinyin": "BZ",
            "subName": ""
        },
        {
            "fromDestId": "97",
            "id": "97",
            "isHot": false,
            "name": "沧州",
            "pinyin": "CANGZHOU",
            "provinceName": "河北",
            "seq": -1,
            "shortPinyin": "CZ",
            "subName": ""
        },
        {
            "fromDestId": "137",
            "id": "137",
            "isHot": false,
            "name": "长春",
            "pinyin": "CHANGCHUN",
            "provinceName": "吉林",
            "seq": -1,
            "shortPinyin": "CC",
            "subName": ""
        },
        {
            "fromDestId": "314",
            "id": "314",
            "isHot": false,
            "name": "常德",
            "pinyin": "CHANGDE",
            "provinceName": "湖南",
            "seq": -1,
            "shortPinyin": "CD",
            "subName": ""
        },
        {
            "fromDestId": "250",
            "id": "250",
            "isHot": false,
            "name": "昌都",
            "pinyin": "CHANGDOU",
            "provinceName": "西藏",
            "seq": -1,
            "shortPinyin": "CD",
            "subName": ""
        },
        {
            "fromDestId": "371",
            "id": "371",
            "isHot": false,
            "name": "昌吉回族",
            "pinyin": "CHANGJIHUIZU",
            "provinceName": "新疆",
            "seq": -1,
            "shortPinyin": "CJHZZ",
            "subName": ""
        },
        {
            "fromDestId": "308",
            "id": "308",
            "isHot": false,
            "name": "长沙",
            "pinyin": "CHANGSHA",
            "provinceName": "湖南",
            "seq": -1,
            "shortPinyin": "CS",
            "subName": ""
        },
        {
            "fromDestId": "103",
            "id": "103",
            "isHot": false,
            "name": "长治",
            "pinyin": "CHANGZHI",
            "provinceName": "山西",
            "seq": -1,
            "shortPinyin": "CZ",
            "subName": ""
        },
        {
            "fromDestId": "59",
            "id": "59",
            "isHot": false,
            "name": "常州",
            "pinyin": "CHANGZHOU",
            "provinceName": "江苏",
            "seq": -1,
            "shortPinyin": "CZ",
            "subName": ""
        },
        {
            "fromDestId": "149",
            "id": "149",
            "isHot": false,
            "name": "巢湖",
            "pinyin": "CHAOHU",
            "provinceName": "安徽",
            "seq": -1,
            "shortPinyin": "CH",
            "subName": ""
        },
        {
            "fromDestId": "135",
            "id": "135",
            "isHot": false,
            "name": "朝阳",
            "pinyin": "CHAOYANGSHI",
            "provinceName": "辽宁",
            "seq": -1,
            "shortPinyin": "CYS",
            "subName": ""
        },
        {
            "fromDestId": "204",
            "id": "204",
            "isHot": false,
            "name": "潮州",
            "pinyin": "CHAOZHOU",
            "provinceName": "广东",
            "seq": -1,
            "shortPinyin": "CZ",
            "subName": ""
        },
        {
            "fromDestId": "96",
            "id": "96",
            "isHot": false,
            "name": "承德",
            "pinyin": "CHENGDE",
            "provinceName": "河北",
            "seq": -1,
            "shortPinyin": "CD",
            "subName": ""
        },
        {
            "fromDestId": "258",
            "id": "258",
            "isHot": true,
            "name": "成都",
            "pinyin": "CHENGDU",
            "provinceName": "四川",
            "seq": 10,
            "shortPinyin": "CD",
            "subName": ""
        },
        {
            "fromDestId": "317",
            "id": "317",
            "isHot": false,
            "name": "郴州",
            "pinyin": "CHENZHOU",
            "provinceName": "湖南",
            "seq": -1,
            "shortPinyin": "CZ",
            "subName": ""
        },
        {
            "fromDestId": "114",
            "id": "114",
            "isHot": false,
            "name": "赤峰",
            "pinyin": "CHIFENG",
            "provinceName": "内蒙古",
            "seq": -1,
            "shortPinyin": "CF",
            "subName": ""
        },
        {
            "fromDestId": "152",
            "id": "152",
            "isHot": false,
            "name": "池州",
            "pinyin": "CHIZHOU",
            "provinceName": "安徽",
            "seq": -1,
            "shortPinyin": "CZ",
            "subName": ""
        },
        {
            "fromDestId": 31,
            "id": 31,
            "isHot": false,
            "name": "重庆",
            "pinyin": "CHONGQING",
            "provinceName": "重庆",
            "seq": -1,
            "shortPinyin": "cq",
            "subName": ""
        },
        {
            "fromDestId": "220",
            "id": "220",
            "isHot": false,
            "name": "崇左",
            "pinyin": "CHONGZUO",
            "provinceName": "广西",
            "seq": -1,
            "shortPinyin": "CZ",
            "subName": ""
        },
        {
            "fromDestId": "241",
            "id": "241",
            "isHot": false,
            "name": "楚雄",
            "pinyin": "CHUXIONG",
            "provinceName": "云南",
            "seq": -1,
            "shortPinyin": "CX",
            "subName": ""
        },
        {
            "fromDestId": "146",
            "id": "146",
            "isHot": false,
            "name": "滁州",
            "pinyin": "CHUZHOU",
            "provinceName": "安徽",
            "seq": -1,
            "shortPinyin": "CZ",
            "subName": ""
        },
        {
            "fromDestId": "245",
            "id": "245",
            "isHot": false,
            "name": "大理",
            "pinyin": "DALI",
            "provinceName": "云南",
            "seq": -1,
            "shortPinyin": "DL",
            "subName": ""
        },
        {
            "fromDestId": "124",
            "id": "124",
            "isHot": false,
            "name": "大连",
            "pinyin": "DALIAN",
            "provinceName": "辽宁",
            "seq": -1,
            "shortPinyin": "DL",
            "subName": ""
        },
        {
            "fromDestId": "128",
            "id": "128",
            "isHot": false,
            "name": "丹东",
            "pinyin": "DANDONG",
            "provinceName": "辽宁",
            "seq": -1,
            "shortPinyin": "DD",
            "subName": ""
        },
        {
            "fromDestId": "48",
            "id": "48",
            "isHot": false,
            "name": "大庆",
            "pinyin": "DAQING",
            "provinceName": "黑龙江",
            "seq": -1,
            "shortPinyin": "DQ",
            "subName": ""
        },
        {
            "fromDestId": "101",
            "id": "101",
            "isHot": false,
            "name": "大同",
            "pinyin": "DATONG",
            "provinceName": "山西",
            "seq": -1,
            "shortPinyin": "DT",
            "subName": ""
        },
        {
            "fromDestId": "55",
            "id": "55",
            "isHot": false,
            "name": "大兴安岭",
            "pinyin": "DAXINGANLING",
            "provinceName": "黑龙江",
            "seq": -1,
            "shortPinyin": "DXAL",
            "subName": ""
        },
        {
            "fromDestId": "272",
            "id": "272",
            "isHot": false,
            "name": "达州",
            "pinyin": "DAZHOU",
            "provinceName": "四川",
            "seq": -1,
            "shortPinyin": "DZ",
            "subName": ""
        },
        {
            "fromDestId": "246",
            "id": "246",
            "isHot": false,
            "name": "德宏",
            "pinyin": "DEHONG",
            "provinceName": "云南",
            "seq": -1,
            "shortPinyin": "DH",
            "subName": ""
        },
        {
            "fromDestId": "262",
            "id": "262",
            "isHot": false,
            "name": "德阳",
            "pinyin": "DEYANG",
            "provinceName": "四川",
            "seq": -1,
            "shortPinyin": "DY",
            "subName": ""
        },
        {
            "fromDestId": "187",
            "id": "187",
            "isHot": false,
            "name": "德州",
            "pinyin": "DEZHOU",
            "provinceName": "山东",
            "seq": -1,
            "shortPinyin": "DZ",
            "subName": ""
        },
        {
            "fromDestId": "350",
            "id": "350",
            "isHot": false,
            "name": "定西",
            "pinyin": "DINGXI",
            "provinceName": "甘肃",
            "seq": -1,
            "shortPinyin": "DX",
            "subName": ""
        },
        {
            "fromDestId": "248",
            "id": "248",
            "isHot": false,
            "name": "迪庆",
            "pinyin": "DIQING",
            "provinceName": "云南",
            "seq": -1,
            "shortPinyin": "DQ",
            "subName": ""
        },
        {
            "fromDestId": "202",
            "id": "202",
            "isHot": false,
            "name": "东莞",
            "pinyin": "DONGGUAN",
            "provinceName": "广东",
            "seq": -1,
            "shortPinyin": "DG",
            "subName": ""
        },
        {
            "fromDestId": "178",
            "id": "178",
            "isHot": false,
            "name": "东营",
            "pinyin": "DONGYING",
            "provinceName": "山东",
            "seq": -1,
            "shortPinyin": "DY",
            "subName": ""
        },
        {
            "fromDestId": "116",
            "id": "116",
            "isHot": false,
            "name": "鄂尔多斯",
            "pinyin": "EERDUOSI",
            "provinceName": "内蒙古",
            "seq": -1,
            "shortPinyin": "EEDS",
            "subName": ""
        },
        {
            "fromDestId": "303",
            "id": "303",
            "isHot": false,
            "name": "恩施",
            "pinyin": "ENSHI",
            "provinceName": "湖北",
            "seq": -1,
            "shortPinyin": "ES",
            "subName": ""
        },
        {
            "fromDestId": "296",
            "id": "296",
            "isHot": false,
            "name": "鄂州",
            "pinyin": "EZHOU",
            "provinceName": "湖北",
            "seq": -1,
            "shortPinyin": "EZ",
            "subName": ""
        },
        {
            "fromDestId": "212",
            "id": "212",
            "isHot": false,
            "name": "防城港",
            "pinyin": "FANGCHENGGANG",
            "provinceName": "广西",
            "seq": -1,
            "shortPinyin": "FCG",
            "subName": ""
        },
        {
            "fromDestId": "327",
            "id": "327",
            "isHot": false,
            "name": "佛山",
            "pinyin": "FOSHAN",
            "provinceName": "广东",
            "seq": -1,
            "shortPinyin": "FS",
            "subName": ""
        },
        {
            "fromDestId": "126",
            "id": "126",
            "isHot": false,
            "name": "抚顺",
            "pinyin": "FUSHUN",
            "provinceName": "辽宁",
            "seq": -1,
            "shortPinyin": "FS",
            "subName": ""
        },
        {
            "fromDestId": "131",
            "id": "131",
            "isHot": false,
            "name": "阜新",
            "pinyin": "FUXIN",
            "provinceName": "辽宁",
            "seq": -1,
            "shortPinyin": "FX",
            "subName": ""
        },
        {
            "fromDestId": "147",
            "id": "147",
            "isHot": false,
            "name": "阜阳",
            "pinyin": "FUYANG",
            "provinceName": "安徽",
            "seq": -1,
            "shortPinyin": "FY",
            "subName": ""
        },
        {
            "fromDestId": "172",
            "id": "172",
            "isHot": false,
            "name": "抚州",
            "pinyin": "FUZHOU",
            "provinceName": "江西",
            "seq": -1,
            "shortPinyin": "FZ",
            "subName": ""
        },
        {
            "fromDestId": "154",
            "id": "154",
            "isHot": false,
            "name": "福州",
            "pinyin": "FUZHOU",
            "provinceName": "福建",
            "seq": -1,
            "shortPinyin": "FZ",
            "subName": ""
        },
        {
            "fromDestId": "353",
            "id": "353",
            "isHot": false,
            "name": "甘南",
            "pinyin": "GANNAN",
            "provinceName": "甘肃",
            "seq": -1,
            "shortPinyin": "GN",
            "subName": ""
        },
        {
            "fromDestId": "169",
            "id": "169",
            "isHot": false,
            "name": "赣州",
            "pinyin": "GANZHOU",
            "provinceName": "江西",
            "seq": -1,
            "shortPinyin": "GZ",
            "subName": ""
        },
        {
            "fromDestId": "222",
            "id": "222",
            "isHot": false,
            "name": "甘孜",
            "pinyin": "GANZI",
            "provinceName": "四川",
            "seq": -1,
            "shortPinyin": "GZ",
            "subName": ""
        },
        {
            "fromDestId": "8001",
            "id": "8001",
            "isHot": false,
            "name": "高雄",
            "pinyin": "GAOXIONG",
            "provinceName": "台湾",
            "seq": -1,
            "shortPinyin": "GX",
            "subName": ""
        },
        {
            "fromDestId": "8016",
            "id": "8016",
            "isHot": false,
            "name": "高雄县",
            "pinyin": "GAOXIONGXIAN",
            "provinceName": "台湾",
            "seq": -1,
            "shortPinyin": "GXX",
            "subName": ""
        },
        {
            "fromDestId": "271",
            "id": "271",
            "isHot": false,
            "name": "广安",
            "pinyin": "GUANGAN",
            "provinceName": "四川",
            "seq": -1,
            "shortPinyin": "GA",
            "subName": ""
        },
        {
            "fromDestId": "264",
            "id": "264",
            "isHot": false,
            "name": "广元",
            "pinyin": "GUANGYUAN",
            "provinceName": "四川",
            "seq": -1,
            "shortPinyin": "GY",
            "subName": ""
        },
        {
            "fromDestId": "322",
            "id": "322",
            "isHot": true,
            "name": "广州",
            "pinyin": "GUANGZHOU",
            "provinceName": "广东",
            "seq": 13,
            "shortPinyin": "GZ",
            "subName": ""
        },
        {
            "fromDestId": "214",
            "id": "214",
            "isHot": false,
            "name": "贵港",
            "pinyin": "GUIGANG",
            "provinceName": "广西",
            "seq": -1,
            "shortPinyin": "GG",
            "subName": ""
        },
        {
            "fromDestId": "209",
            "id": "209",
            "isHot": true,
            "name": "桂林",
            "pinyin": "GUILIN",
            "provinceName": "广西",
            "seq": 12,
            "shortPinyin": "GL",
            "subName": ""
        },
        {
            "fromDestId": "224",
            "id": "224",
            "isHot": false,
            "name": "贵阳",
            "pinyin": "GUIYANG",
            "provinceName": "贵州",
            "seq": -1,
            "shortPinyin": "GY",
            "subName": ""
        },
        {
            "fromDestId": "359",
            "id": "359",
            "isHot": false,
            "name": "果洛藏族",
            "pinyin": "GUOLUOZANGZU",
            "provinceName": "青海",
            "seq": -1,
            "shortPinyin": "GLZZ",
            "subName": ""
        },
        {
            "fromDestId": "365",
            "id": "365",
            "isHot": false,
            "name": "固原",
            "pinyin": "GUYUAN",
            "provinceName": "宁夏",
            "seq": -1,
            "shortPinyin": "GY",
            "subName": ""
        },
        {
            "fromDestId": "43",
            "id": "43",
            "isHot": false,
            "name": "哈尔滨",
            "pinyin": "HAERBIN",
            "provinceName": "黑龙江",
            "seq": -1,
            "shortPinyin": "HEB",
            "subName": ""
        },
        {
            "fromDestId": "356",
            "id": "356",
            "isHot": false,
            "name": "海北藏族",
            "pinyin": "HAIBEIZANGZU",
            "provinceName": "青海",
            "seq": -1,
            "shortPinyin": "HBZZ",
            "subName": ""
        },
        {
            "fromDestId": "355",
            "id": "355",
            "isHot": false,
            "name": "海东地区",
            "pinyin": "HAIDONGDIQU",
            "provinceName": "青海",
            "seq": -1,
            "shortPinyin": "HDDQ",
            "subName": ""
        },
        {
            "fromDestId": "221",
            "id": "221",
            "isHot": false,
            "name": "海口",
            "pinyin": "HAIKOU",
            "provinceName": "海南",
            "seq": -1,
            "shortPinyin": "HK",
            "subName": ""
        },
        {
            "fromDestId": "358",
            "id": "358",
            "isHot": false,
            "name": "海南藏族",
            "pinyin": "HAINANZANGZU",
            "provinceName": "青海",
            "seq": -1,
            "shortPinyin": "HNZZ",
            "subName": ""
        },
        {
            "fromDestId": "361",
            "id": "361",
            "isHot": false,
            "name": "海西藏族",
            "pinyin": "HAIXIZANGZU",
            "provinceName": "青海",
            "seq": -1,
            "shortPinyin": "HXZZ",
            "subName": ""
        },
        {
            "fromDestId": "370",
            "id": "370",
            "isHot": false,
            "name": "哈密",
            "pinyin": "HAMI",
            "provinceName": "新疆",
            "seq": -1,
            "shortPinyin": "HM",
            "subName": ""
        },
        {
            "fromDestId": "92",
            "id": "92",
            "isHot": false,
            "name": "邯郸",
            "pinyin": "HANDAN",
            "provinceName": "河北",
            "seq": -1,
            "shortPinyin": "HD",
            "subName": ""
        },
        {
            "fromDestId": "69",
            "id": "69",
            "isHot": true,
            "name": "杭州",
            "pinyin": "HANGZHOU",
            "provinceName": "浙江",
            "seq": 3,
            "shortPinyin": "HZ",
            "subName": ""
        },
        {
            "fromDestId": "336",
            "id": "336",
            "isHot": false,
            "name": "汉中",
            "pinyin": "HANZHONG",
            "provinceName": "陕西",
            "seq": -1,
            "shortPinyin": "HZ",
            "subName": ""
        },
        {
            "fromDestId": "278",
            "id": "278",
            "isHot": false,
            "name": "鹤壁",
            "pinyin": "HEBI",
            "provinceName": "河南",
            "seq": -1,
            "shortPinyin": "HB",
            "subName": ""
        },
        {
            "fromDestId": "218",
            "id": "218",
            "isHot": false,
            "name": "河池",
            "pinyin": "HECHI",
            "provinceName": "广西",
            "seq": -1,
            "shortPinyin": "HC",
            "subName": ""
        },
        {
            "fromDestId": "80",
            "id": "80",
            "isHot": false,
            "name": "合肥",
            "pinyin": "HEFEI",
            "provinceName": "安徽",
            "seq": -1,
            "shortPinyin": "HF",
            "subName": ""
        },
        {
            "fromDestId": "46",
            "id": "46",
            "isHot": false,
            "name": "鹤岗",
            "pinyin": "HEGANG",
            "provinceName": "黑龙江",
            "seq": -1,
            "shortPinyin": "HG",
            "subName": ""
        },
        {
            "fromDestId": "53",
            "id": "53",
            "isHot": false,
            "name": "黑河",
            "pinyin": "HEIHE",
            "provinceName": "黑龙江",
            "seq": -1,
            "shortPinyin": "HH",
            "subName": ""
        },
        {
            "fromDestId": "99",
            "id": "99",
            "isHot": false,
            "name": "衡水",
            "pinyin": "HENGSHUI",
            "provinceName": "河北",
            "seq": -1,
            "shortPinyin": "HS",
            "subName": ""
        },
        {
            "fromDestId": "311",
            "id": "311",
            "isHot": false,
            "name": "衡阳",
            "pinyin": "HENGYANG",
            "provinceName": "湖南",
            "seq": -1,
            "shortPinyin": "HY",
            "subName": ""
        },
        {
            "fromDestId": "377",
            "id": "377",
            "isHot": false,
            "name": "和田地区",
            "pinyin": "HETIANDIQU",
            "provinceName": "新疆",
            "seq": -1,
            "shortPinyin": "HTDQ",
            "subName": ""
        },
        {
            "fromDestId": "199",
            "id": "199",
            "isHot": false,
            "name": "河源",
            "pinyin": "HEYUAN",
            "provinceName": "广东",
            "seq": -1,
            "shortPinyin": "HY",
            "subName": ""
        },
        {
            "fromDestId": "190",
            "id": "190",
            "isHot": false,
            "name": "菏泽",
            "pinyin": "HEZE",
            "provinceName": "山东",
            "seq": -1,
            "shortPinyin": "HZ",
            "subName": ""
        },
        {
            "fromDestId": "217",
            "id": "217",
            "isHot": false,
            "name": "贺州",
            "pinyin": "HEZHOU",
            "provinceName": "广西",
            "seq": -1,
            "shortPinyin": "HZ",
            "subName": ""
        },
        {
            "fromDestId": "242",
            "id": "242",
            "isHot": false,
            "name": "红河",
            "pinyin": "HONGHE",
            "provinceName": "云南",
            "seq": -1,
            "shortPinyin": "HH",
            "subName": ""
        },
        {
            "fromDestId": "63",
            "id": "63",
            "isHot": false,
            "name": "淮安",
            "pinyin": "HUAIAN",
            "provinceName": "江苏",
            "seq": -1,
            "shortPinyin": "HA",
            "subName": ""
        },
        {
            "fromDestId": "85",
            "id": "85",
            "isHot": false,
            "name": "淮北",
            "pinyin": "HUAIBEI",
            "provinceName": "安徽",
            "seq": -1,
            "shortPinyin": "HB",
            "subName": ""
        },
        {
            "fromDestId": "319",
            "id": "319",
            "isHot": false,
            "name": "怀化",
            "pinyin": "HUAIHUA",
            "provinceName": "湖南",
            "seq": -1,
            "shortPinyin": "HH",
            "subName": ""
        },
        {
            "fromDestId": "83",
            "id": "83",
            "isHot": false,
            "name": "淮南",
            "pinyin": "HUAINAN",
            "provinceName": "安徽",
            "seq": -1,
            "shortPinyin": "HN",
            "subName": ""
        },
        {
            "fromDestId": "8020",
            "id": "8020",
            "isHot": false,
            "name": "花莲县",
            "pinyin": "HUALIAN",
            "provinceName": "台湾",
            "seq": -1,
            "shortPinyin": "HL",
            "subName": ""
        },
        {
            "fromDestId": "300",
            "id": "300",
            "isHot": false,
            "name": "黄冈",
            "pinyin": "HUANGGANG",
            "provinceName": "湖北",
            "seq": -1,
            "shortPinyin": "HG",
            "subName": ""
        },
        {
            "fromDestId": "357",
            "id": "357",
            "isHot": false,
            "name": "黄南藏族",
            "pinyin": "HUANGNANZANGZU",
            "provinceName": "青海",
            "seq": -1,
            "shortPinyin": "HNZZ",
            "subName": ""
        },
        {
            "fromDestId": "88",
            "id": "88",
            "isHot": false,
            "name": "黄山",
            "pinyin": "HUANGSHANSHI",
            "provinceName": "安徽",
            "seq": -1,
            "shortPinyin": "HSS",
            "subName": ""
        },
        {
            "fromDestId": "292",
            "id": "292",
            "isHot": false,
            "name": "黄石",
            "pinyin": "HUANGSHI",
            "provinceName": "湖北",
            "seq": -1,
            "shortPinyin": "HS",
            "subName": ""
        },
        {
            "fromDestId": "111",
            "id": "111",
            "isHot": false,
            "name": "呼和浩特",
            "pinyin": "HUHEHAOTE",
            "provinceName": "内蒙古",
            "seq": -1,
            "shortPinyin": "HHHT",
            "subName": ""
        },
        {
            "fromDestId": "196",
            "id": "196",
            "isHot": false,
            "name": "惠州",
            "pinyin": "HUIZHOU",
            "provinceName": "广东",
            "seq": -1,
            "shortPinyin": "HZ",
            "subName": ""
        },
        {
            "fromDestId": "136",
            "id": "136",
            "isHot": false,
            "name": "葫芦岛",
            "pinyin": "HULUDAO",
            "provinceName": "辽宁",
            "seq": -1,
            "shortPinyin": "HLD",
            "subName": ""
        },
        {
            "fromDestId": "117",
            "id": "117",
            "isHot": false,
            "name": "呼伦贝尔",
            "pinyin": "HULUNBEIER",
            "provinceName": "内蒙古",
            "seq": -1,
            "shortPinyin": "HLBE",
            "subName": ""
        },
        {
            "fromDestId": "73",
            "id": "73",
            "isHot": false,
            "name": "湖州",
            "pinyin": "HUZHOU",
            "provinceName": "浙江",
            "seq": -1,
            "shortPinyin": "HZ",
            "subName": ""
        },
        {
            "fromDestId": "50",
            "id": "50",
            "isHot": false,
            "name": "佳木斯",
            "pinyin": "JIAMUSI",
            "provinceName": "黑龙江",
            "seq": -1,
            "shortPinyin": "JMS",
            "subName": ""
        },
        {
            "fromDestId": "170",
            "id": "170",
            "isHot": false,
            "name": "吉安",
            "pinyin": "JIAN",
            "provinceName": "江西",
            "seq": -1,
            "shortPinyin": "JA",
            "subName": ""
        },
        {
            "fromDestId": "328",
            "id": "328",
            "isHot": false,
            "name": "江门",
            "pinyin": "JIANGMEN",
            "provinceName": "广东",
            "seq": -1,
            "shortPinyin": "JM",
            "subName": ""
        },
        {
            "fromDestId": "280",
            "id": "280",
            "isHot": false,
            "name": "焦作",
            "pinyin": "JIAOZUO",
            "provinceName": "河南",
            "seq": -1,
            "shortPinyin": "JZ",
            "subName": ""
        },
        {
            "fromDestId": "72",
            "id": "72",
            "isHot": false,
            "name": "嘉兴",
            "pinyin": "JIAXING",
            "provinceName": "浙江",
            "seq": -1,
            "shortPinyin": "JX",
            "subName": ""
        },
        {
            "fromDestId": "8006",
            "id": "8006",
            "isHot": false,
            "name": "嘉义",
            "pinyin": "JIAYI",
            "provinceName": "台湾",
            "seq": -1,
            "shortPinyin": "JY",
            "subName": ""
        },
        {
            "fromDestId": "61360",
            "id": "61360",
            "isHot": false,
            "name": "嘉义县",
            "pinyin": "JIAYIXIAN",
            "provinceName": "台湾",
            "seq": -1,
            "shortPinyin": "JYX",
            "subName": ""
        },
        {
            "fromDestId": "341",
            "id": "341",
            "isHot": false,
            "name": "嘉峪关",
            "pinyin": "JIAYUGUAN",
            "provinceName": "甘肃",
            "seq": -1,
            "shortPinyin": "JYG",
            "subName": ""
        },
        {
            "fromDestId": "205",
            "id": "205",
            "isHot": false,
            "name": "揭阳",
            "pinyin": "JIEYANG",
            "provinceName": "广东",
            "seq": -1,
            "shortPinyin": "JY",
            "subName": ""
        },
        {
            "fromDestId": "138",
            "id": "138",
            "isHot": false,
            "name": "吉林",
            "pinyin": "JILINSHI",
            "provinceName": "吉林",
            "seq": -1,
            "shortPinyin": "JLS",
            "subName": ""
        },
        {
            "fromDestId": "8002",
            "id": "8002",
            "isHot": false,
            "name": "基隆",
            "pinyin": "JILONG",
            "provinceName": "台湾",
            "seq": -1,
            "shortPinyin": "JL",
            "subName": ""
        },
        {
            "fromDestId": "174",
            "id": "174",
            "isHot": false,
            "name": "济南",
            "pinyin": "JINAN",
            "provinceName": "山东",
            "seq": -1,
            "shortPinyin": "JN",
            "subName": ""
        },
        {
            "fromDestId": "342",
            "id": "342",
            "isHot": false,
            "name": "金昌",
            "pinyin": "JINCHANG",
            "provinceName": "甘肃",
            "seq": -1,
            "shortPinyin": "JC",
            "subName": ""
        },
        {
            "fromDestId": "104",
            "id": "104",
            "isHot": false,
            "name": "晋城",
            "pinyin": "JINCHENG",
            "provinceName": "山西",
            "seq": -1,
            "shortPinyin": "JC",
            "subName": ""
        },
        {
            "fromDestId": "164",
            "id": "164",
            "isHot": false,
            "name": "景德镇",
            "pinyin": "JINGDEZHEN",
            "provinceName": "江西",
            "seq": -1,
            "shortPinyin": "JDZ",
            "subName": ""
        },
        {
            "fromDestId": "297",
            "id": "297",
            "isHot": false,
            "name": "荆门",
            "pinyin": "JINGMEN",
            "provinceName": "湖北",
            "seq": -1,
            "shortPinyin": "JM",
            "subName": ""
        },
        {
            "fromDestId": "299",
            "id": "299",
            "isHot": false,
            "name": "荆州",
            "pinyin": "JINGZHOU",
            "provinceName": "湖北",
            "seq": -1,
            "shortPinyin": "JZ",
            "subName": ""
        },
        {
            "fromDestId": "75",
            "id": "75",
            "isHot": false,
            "name": "金华",
            "pinyin": "JINHUA",
            "provinceName": "浙江",
            "seq": -1,
            "shortPinyin": "JH",
            "subName": ""
        },
        {
            "fromDestId": "181",
            "id": "181",
            "isHot": false,
            "name": "济宁",
            "pinyin": "JINING",
            "provinceName": "山东",
            "seq": -1,
            "shortPinyin": "JN",
            "subName": ""
        },
        {
            "fromDestId": "106",
            "id": "106",
            "isHot": false,
            "name": "晋中",
            "pinyin": "JINZHONG",
            "provinceName": "山西",
            "seq": -1,
            "shortPinyin": "JZ",
            "subName": ""
        },
        {
            "fromDestId": "129",
            "id": "129",
            "isHot": false,
            "name": "锦州",
            "pinyin": "JINZHOU",
            "provinceName": "辽宁",
            "seq": -1,
            "shortPinyin": "JZ",
            "subName": ""
        },
        {
            "fromDestId": "166",
            "id": "166",
            "isHot": false,
            "name": "九江",
            "pinyin": "JIUJIANG",
            "provinceName": "江西",
            "seq": -1,
            "shortPinyin": "JJ",
            "subName": ""
        },
        {
            "fromDestId": "348",
            "id": "348",
            "isHot": false,
            "name": "酒泉",
            "pinyin": "JIUQUAN",
            "provinceName": "甘肃",
            "seq": -1,
            "shortPinyin": "JQ",
            "subName": ""
        },
        {
            "fromDestId": "45",
            "id": "45",
            "isHot": false,
            "name": "鸡西",
            "pinyin": "JIXI",
            "provinceName": "黑龙江",
            "seq": -1,
            "shortPinyin": "JX",
            "subName": ""
        },
        {
            "fromDestId": "290",
            "id": "290",
            "isHot": false,
            "name": "济源",
            "pinyin": "JIYUAN",
            "provinceName": "河南",
            "seq": -1,
            "shortPinyin": "JY",
            "subName": ""
        },
        {
            "fromDestId": "192",
            "id": "192",
            "isHot": false,
            "name": "开封",
            "pinyin": "KAIFENG",
            "provinceName": "河南",
            "seq": -1,
            "shortPinyin": "KF",
            "subName": ""
        },
        {
            "fromDestId": "376",
            "id": "376",
            "isHot": false,
            "name": "喀什地区",
            "pinyin": "KASHENDIQU",
            "provinceName": "新疆",
            "seq": -1,
            "shortPinyin": "KSDQ",
            "subName": ""
        },
        {
            "fromDestId": "368",
            "id": "368",
            "isHot": false,
            "name": "克拉玛依",
            "pinyin": "KELAMAYI",
            "provinceName": "新疆",
            "seq": -1,
            "shortPinyin": "KLMY",
            "subName": ""
        },
        {
            "fromDestId": "375",
            "id": "375",
            "isHot": false,
            "name": "克孜勒苏",
            "pinyin": "KEZILESU",
            "provinceName": "新疆",
            "seq": -1,
            "shortPinyin": "KZLS",
            "subName": ""
        },
        {
            "fromDestId": "233",
            "id": "233",
            "isHot": true,
            "name": "昆明",
            "pinyin": "KUNMING",
            "provinceName": "云南",
            "seq": 11,
            "shortPinyin": "KM",
            "subName": ""
        },
        {
            "fromDestId": "219",
            "id": "219",
            "isHot": false,
            "name": "来宾",
            "pinyin": "LAIBIN",
            "provinceName": "广西",
            "seq": -1,
            "shortPinyin": "LB",
            "subName": ""
        },
        {
            "fromDestId": "185",
            "id": "185",
            "isHot": false,
            "name": "莱芜",
            "pinyin": "LAIWU",
            "provinceName": "山东",
            "seq": -1,
            "shortPinyin": "LW",
            "subName": ""
        },
        {
            "fromDestId": "98",
            "id": "98",
            "isHot": false,
            "name": "廊坊",
            "pinyin": "LANGFANG",
            "provinceName": "河北",
            "seq": -1,
            "shortPinyin": "LF",
            "subName": ""
        },
        {
            "fromDestId": "340",
            "id": "340",
            "isHot": false,
            "name": "兰州",
            "pinyin": "LANZHOU",
            "provinceName": "甘肃",
            "seq": -1,
            "shortPinyin": "LZ",
            "subName": ""
        },
        {
            "fromDestId": "249",
            "id": "249",
            "isHot": false,
            "name": "拉萨",
            "pinyin": "LASA",
            "provinceName": "西藏",
            "seq": -1,
            "shortPinyin": "LS",
            "subName": ""
        },
        {
            "fromDestId": "267",
            "id": "267",
            "isHot": false,
            "name": "乐山",
            "pinyin": "LESHAN",
            "provinceName": "四川",
            "seq": -1,
            "shortPinyin": "LS",
            "subName": ""
        },
        {
            "fromDestId": "223",
            "id": "223",
            "isHot": false,
            "name": "凉山",
            "pinyin": "LIANGSHAN",
            "provinceName": "四川",
            "seq": -1,
            "shortPinyin": "LS",
            "subName": ""
        },
        {
            "fromDestId": "62",
            "id": "62",
            "isHot": false,
            "name": "连云港",
            "pinyin": "LIANYUNGANG",
            "provinceName": "江苏",
            "seq": -1,
            "shortPinyin": "LYG",
            "subName": ""
        },
        {
            "fromDestId": "188",
            "id": "188",
            "isHot": false,
            "name": "聊城",
            "pinyin": "LIAOCHENG",
            "provinceName": "山东",
            "seq": -1,
            "shortPinyin": "LC",
            "subName": ""
        },
        {
            "fromDestId": "132",
            "id": "132",
            "isHot": false,
            "name": "辽阳",
            "pinyin": "LIAOYANG",
            "provinceName": "辽宁",
            "seq": -1,
            "shortPinyin": "LY",
            "subName": ""
        },
        {
            "fromDestId": "140",
            "id": "140",
            "isHot": false,
            "name": "辽源",
            "pinyin": "LIAOYUAN",
            "provinceName": "吉林",
            "seq": -1,
            "shortPinyin": "LY",
            "subName": ""
        },
        {
            "fromDestId": "238",
            "id": "238",
            "isHot": false,
            "name": "丽江",
            "pinyin": "LIJIANG",
            "provinceName": "云南",
            "seq": -1,
            "shortPinyin": "LJ",
            "subName": ""
        },
        {
            "fromDestId": "240",
            "id": "240",
            "isHot": false,
            "name": "临沧",
            "pinyin": "LINCANG",
            "provinceName": "云南",
            "seq": -1,
            "shortPinyin": "LC",
            "subName": ""
        },
        {
            "fromDestId": "109",
            "id": "109",
            "isHot": false,
            "name": "临汾",
            "pinyin": "LINFEN",
            "provinceName": "山西",
            "seq": -1,
            "shortPinyin": "LF",
            "subName": ""
        },
        {
            "fromDestId": "352",
            "id": "352",
            "isHot": false,
            "name": "临夏",
            "pinyin": "LINXIA",
            "provinceName": "甘肃",
            "seq": -1,
            "shortPinyin": "LX",
            "subName": ""
        },
        {
            "fromDestId": "186",
            "id": "186",
            "isHot": false,
            "name": "临沂",
            "pinyin": "LINYI",
            "provinceName": "山东",
            "seq": -1,
            "shortPinyin": "LY",
            "subName": ""
        },
        {
            "fromDestId": "255",
            "id": "255",
            "isHot": false,
            "name": "林芝",
            "pinyin": "LINZHI",
            "provinceName": "西藏",
            "seq": -1,
            "shortPinyin": "LZ",
            "subName": ""
        },
        {
            "fromDestId": "79",
            "id": "79",
            "isHot": false,
            "name": "丽水",
            "pinyin": "LISHUI",
            "provinceName": "浙江",
            "seq": -1,
            "shortPinyin": "LS",
            "subName": ""
        },
        {
            "fromDestId": "150",
            "id": "150",
            "isHot": false,
            "name": "六安",
            "pinyin": "LIUAN",
            "provinceName": "安徽",
            "seq": -1,
            "shortPinyin": "LA",
            "subName": ""
        },
        {
            "fromDestId": "225",
            "id": "225",
            "isHot": false,
            "name": "六盘水",
            "pinyin": "LIUPANSHUI",
            "provinceName": "贵州",
            "seq": -1,
            "shortPinyin": "LPS",
            "subName": ""
        },
        {
            "fromDestId": "208",
            "id": "208",
            "isHot": false,
            "name": "柳州",
            "pinyin": "LIUZHOU",
            "provinceName": "广西",
            "seq": -1,
            "shortPinyin": "LZ",
            "subName": ""
        },
        {
            "fromDestId": "351",
            "id": "351",
            "isHot": false,
            "name": "陇南",
            "pinyin": "LONGNAN",
            "provinceName": "甘肃",
            "seq": -1,
            "shortPinyin": "LN",
            "subName": ""
        },
        {
            "fromDestId": "161",
            "id": "161",
            "isHot": false,
            "name": "龙岩",
            "pinyin": "LONGYAN",
            "provinceName": "福建",
            "seq": -1,
            "shortPinyin": "LY",
            "subName": ""
        },
        {
            "fromDestId": "320",
            "id": "320",
            "isHot": false,
            "name": "娄底",
            "pinyin": "LOUDI",
            "provinceName": "湖南",
            "seq": -1,
            "shortPinyin": "LD",
            "subName": ""
        },
        {
            "fromDestId": "283",
            "id": "283",
            "isHot": false,
            "name": "漯河",
            "pinyin": "LUOHE",
            "provinceName": "河南",
            "seq": -1,
            "shortPinyin": "LH",
            "subName": ""
        },
        {
            "fromDestId": "193",
            "id": "193",
            "isHot": false,
            "name": "洛阳",
            "pinyin": "LUOYANG",
            "provinceName": "河南",
            "seq": -1,
            "shortPinyin": "LY",
            "subName": ""
        },
        {
            "fromDestId": "261",
            "id": "261",
            "isHot": false,
            "name": "泸州",
            "pinyin": "LUZHOU",
            "provinceName": "四川",
            "seq": -1,
            "shortPinyin": "LZ",
            "subName": ""
        },
        {
            "fromDestId": "110",
            "id": "110",
            "isHot": false,
            "name": "吕梁",
            "pinyin": "LVLIANG",
            "provinceName": "山西",
            "seq": -1,
            "shortPinyin": "LL",
            "subName": ""
        },
        {
            "fromDestId": "84",
            "id": "84",
            "isHot": false,
            "name": "马鞍山",
            "pinyin": "MAANSHAN",
            "provinceName": "安徽",
            "seq": -1,
            "shortPinyin": "MAS",
            "subName": ""
        },
        {
            "fromDestId": "330",
            "id": "330",
            "isHot": false,
            "name": "茂名",
            "pinyin": "MAOMING",
            "provinceName": "广东",
            "seq": -1,
            "shortPinyin": "MM",
            "subName": ""
        },
        {
            "fromDestId": "269",
            "id": "269",
            "isHot": false,
            "name": "眉山",
            "pinyin": "MEISHAN",
            "provinceName": "四川",
            "seq": -1,
            "shortPinyin": "MS",
            "subName": ""
        },
        {
            "fromDestId": "197",
            "id": "197",
            "isHot": false,
            "name": "梅州",
            "pinyin": "MEIZHOU",
            "provinceName": "广东",
            "seq": -1,
            "shortPinyin": "MZ",
            "subName": ""
        },
        {
            "fromDestId": "263",
            "id": "263",
            "isHot": false,
            "name": "绵阳",
            "pinyin": "MIANYANG",
            "provinceName": "四川",
            "seq": -1,
            "shortPinyin": "MY",
            "subName": ""
        },
        {
            "fromDestId": "8011",
            "id": "8011",
            "isHot": false,
            "name": "苗栗县",
            "pinyin": "MIAOLI",
            "provinceName": "台湾",
            "seq": -1,
            "shortPinyin": "ML",
            "subName": ""
        },
        {
            "fromDestId": "52",
            "id": "52",
            "isHot": false,
            "name": "牡丹江",
            "pinyin": "MUDANJIANG",
            "provinceName": "黑龙江",
            "seq": -1,
            "shortPinyin": "MDJ",
            "subName": ""
        },
        {
            "fromDestId": "163",
            "id": "163",
            "isHot": false,
            "name": "南昌",
            "pinyin": "NANCHANG",
            "provinceName": "江西",
            "seq": -1,
            "shortPinyin": "NC",
            "subName": ""
        },
        {
            "fromDestId": "268",
            "id": "268",
            "isHot": false,
            "name": "南充",
            "pinyin": "NANCHONG",
            "provinceName": "四川",
            "seq": -1,
            "shortPinyin": "NC",
            "subName": ""
        },
        {
            "fromDestId": "56",
            "id": "56",
            "isHot": true,
            "name": "南京",
            "pinyin": "NANJING",
            "provinceName": "江苏",
            "seq": 4,
            "shortPinyin": "NJ",
            "subName": ""
        },
        {
            "fromDestId": "207",
            "id": "207",
            "isHot": false,
            "name": "南宁",
            "pinyin": "NANNING",
            "provinceName": "广西",
            "seq": -1,
            "shortPinyin": "NN",
            "subName": ""
        },
        {
            "fromDestId": "160",
            "id": "160",
            "isHot": false,
            "name": "南平",
            "pinyin": "NANPING",
            "provinceName": "福建",
            "seq": -1,
            "shortPinyin": "NP",
            "subName": ""
        },
        {
            "fromDestId": "61",
            "id": "61",
            "isHot": false,
            "name": "南通",
            "pinyin": "NANTONG",
            "provinceName": "江苏",
            "seq": -1,
            "shortPinyin": "NT",
            "subName": ""
        },
        {
            "fromDestId": "8060",
            "id": "8060",
            "isHot": false,
            "name": "南投",
            "pinyin": "NANTOU",
            "provinceName": "台湾",
            "seq": -1,
            "shortPinyin": "NT",
            "subName": ""
        },
        {
            "fromDestId": "285",
            "id": "285",
            "isHot": false,
            "name": "南阳",
            "pinyin": "NANYANG",
            "provinceName": "河南",
            "seq": -1,
            "shortPinyin": "NY",
            "subName": ""
        },
        {
            "fromDestId": "266",
            "id": "266",
            "isHot": false,
            "name": "内江",
            "pinyin": "NEIJIANG",
            "provinceName": "四川",
            "seq": -1,
            "shortPinyin": "NJ",
            "subName": ""
        },
        {
            "fromDestId": "253",
            "id": "253",
            "isHot": false,
            "name": "那曲",
            "pinyin": "NEIQU",
            "provinceName": "西藏",
            "seq": -1,
            "shortPinyin": "NQ",
            "subName": ""
        },
        {
            "fromDestId": "70",
            "id": "70",
            "isHot": true,
            "name": "宁波",
            "pinyin": "NINGBO",
            "provinceName": "浙江",
            "seq": 6,
            "shortPinyin": "NB",
            "subName": ""
        },
        {
            "fromDestId": "162",
            "id": "162",
            "isHot": false,
            "name": "宁德",
            "pinyin": "NINGDE",
            "provinceName": "福建",
            "seq": -1,
            "shortPinyin": "ND",
            "subName": ""
        },
        {
            "fromDestId": "247",
            "id": "247",
            "isHot": false,
            "name": "怒江",
            "pinyin": "NUJIANG",
            "provinceName": "云南",
            "seq": -1,
            "shortPinyin": "NJ",
            "subName": ""
        },
        {
            "fromDestId": "133",
            "id": "133",
            "isHot": false,
            "name": "盘锦",
            "pinyin": "PANJIN",
            "provinceName": "辽宁",
            "seq": -1,
            "shortPinyin": "PJ",
            "subName": ""
        },
        {
            "fromDestId": "260",
            "id": "260",
            "isHot": false,
            "name": "攀枝花",
            "pinyin": "PANZHIHUA",
            "provinceName": "四川",
            "seq": -1,
            "shortPinyin": "PZH",
            "subName": ""
        },
        {
            "fromDestId": "8018",
            "id": "8018",
            "isHot": false,
            "name": "澎湖县",
            "pinyin": "PENGHU",
            "provinceName": "台湾",
            "seq": -1,
            "shortPinyin": "PH",
            "subName": ""
        },
        {
            "fromDestId": "194",
            "id": "194",
            "isHot": false,
            "name": "平顶山",
            "pinyin": "PINGDINGSHAN",
            "provinceName": "河南",
            "seq": -1,
            "shortPinyin": "PDS",
            "subName": ""
        },
        {
            "fromDestId": "8019",
            "id": "8019",
            "isHot": false,
            "name": "屏东县",
            "pinyin": "PINGDONG",
            "provinceName": "台湾",
            "seq": -1,
            "shortPinyin": "PD",
            "subName": ""
        },
        {
            "fromDestId": "347",
            "id": "347",
            "isHot": false,
            "name": "平凉",
            "pinyin": "PINGLIANG",
            "provinceName": "甘肃",
            "seq": -1,
            "shortPinyin": "PL",
            "subName": ""
        },
        {
            "fromDestId": "165",
            "id": "165",
            "isHot": false,
            "name": "萍乡",
            "pinyin": "PINGXIANG",
            "provinceName": "江西",
            "seq": -1,
            "shortPinyin": "PX",
            "subName": ""
        },
        {
            "fromDestId": "239",
            "id": "239",
            "isHot": false,
            "name": "普洱",
            "pinyin": "PUER",
            "provinceName": "云南",
            "seq": -1,
            "shortPinyin": "PE",
            "subName": ""
        },
        {
            "fromDestId": "156",
            "id": "156",
            "isHot": false,
            "name": "莆田",
            "pinyin": "PUTIAN",
            "provinceName": "福建",
            "seq": -1,
            "shortPinyin": "PT",
            "subName": ""
        },
        {
            "fromDestId": "281",
            "id": "281",
            "isHot": false,
            "name": "濮阳",
            "pinyin": "PUYANG",
            "provinceName": "河南",
            "seq": -1,
            "shortPinyin": "PY",
            "subName": ""
        },
        {
            "fromDestId": "231",
            "id": "231",
            "isHot": false,
            "name": "黔东南",
            "pinyin": "QIANDONGNAN",
            "provinceName": "贵州",
            "seq": -1,
            "shortPinyin": "QDN",
            "subName": ""
        },
        {
            "fromDestId": "305",
            "id": "305",
            "isHot": false,
            "name": "潜江",
            "pinyin": "QIANJIANG",
            "provinceName": "湖北",
            "seq": -1,
            "shortPinyin": "QJ",
            "subName": ""
        },
        {
            "fromDestId": "232",
            "id": "232",
            "isHot": false,
            "name": "黔南",
            "pinyin": "QIANNAN",
            "provinceName": "贵州",
            "seq": -1,
            "shortPinyin": "QN",
            "subName": ""
        },
        {
            "fromDestId": "229",
            "id": "229",
            "isHot": false,
            "name": "黔西南",
            "pinyin": "QIANXINAN",
            "provinceName": "贵州",
            "seq": -1,
            "shortPinyin": "QXN",
            "subName": ""
        },
        {
            "fromDestId": "175",
            "id": "175",
            "isHot": true,
            "name": "青岛",
            "pinyin": "QINGDAO",
            "provinceName": "山东",
            "seq": 9,
            "shortPinyin": "QD",
            "subName": ""
        },
        {
            "fromDestId": "349",
            "id": "349",
            "isHot": false,
            "name": "庆阳",
            "pinyin": "QINGYANG",
            "provinceName": "甘肃",
            "seq": -1,
            "shortPinyin": "QY",
            "subName": ""
        },
        {
            "fromDestId": "201",
            "id": "201",
            "isHot": false,
            "name": "清远",
            "pinyin": "QINGYUAN",
            "provinceName": "广东",
            "seq": -1,
            "shortPinyin": "QY",
            "subName": ""
        },
        {
            "fromDestId": "91",
            "id": "91",
            "isHot": false,
            "name": "秦皇岛",
            "pinyin": "QINHUANGDAO",
            "provinceName": "河北",
            "seq": -1,
            "shortPinyin": "QHD",
            "subName": ""
        },
        {
            "fromDestId": "213",
            "id": "213",
            "isHot": false,
            "name": "钦州",
            "pinyin": "QINZHOU",
            "provinceName": "广西",
            "seq": -1,
            "shortPinyin": "QZ",
            "subName": ""
        },
        {
            "fromDestId": "44",
            "id": "44",
            "isHot": false,
            "name": "齐齐哈尔",
            "pinyin": "QIQIHAER",
            "provinceName": "黑龙江",
            "seq": -1,
            "shortPinyin": "QQHE",
            "subName": ""
        },
        {
            "fromDestId": "51",
            "id": "51",
            "isHot": false,
            "name": "七台河",
            "pinyin": "QITAIHE",
            "provinceName": "黑龙江",
            "seq": -1,
            "shortPinyin": "QTH",
            "subName": ""
        },
        {
            "fromDestId": "158",
            "id": "158",
            "isHot": false,
            "name": "泉州",
            "pinyin": "QUANZHOU",
            "provinceName": "福建",
            "seq": -1,
            "shortPinyin": "QZ",
            "subName": ""
        },
        {
            "fromDestId": "234",
            "id": "234",
            "isHot": false,
            "name": "曲靖",
            "pinyin": "QUJING",
            "provinceName": "云南",
            "seq": -1,
            "shortPinyin": "QJ",
            "subName": ""
        },
        {
            "fromDestId": "76",
            "id": "76",
            "isHot": false,
            "name": "衢州",
            "pinyin": "QUZHOU",
            "provinceName": "浙江",
            "seq": -1,
            "shortPinyin": "QZ",
            "subName": ""
        },
        {
            "fromDestId": "252",
            "id": "252",
            "isHot": false,
            "name": "日喀则",
            "pinyin": "RIKAZE",
            "provinceName": "西藏",
            "seq": -1,
            "shortPinyin": "RKZ",
            "subName": ""
        },
        {
            "fromDestId": "184",
            "id": "184",
            "isHot": false,
            "name": "日照",
            "pinyin": "RIZHAO",
            "provinceName": "山东",
            "seq": -1,
            "shortPinyin": "RZ",
            "subName": ""
        },
        {
            "fromDestId": "284",
            "id": "284",
            "isHot": false,
            "name": "三门峡",
            "pinyin": "SANMENXIA",
            "provinceName": "河南",
            "seq": -1,
            "shortPinyin": "SMX",
            "subName": ""
        },
        {
            "fromDestId": "157",
            "id": "157",
            "isHot": false,
            "name": "三明",
            "pinyin": "SANMING",
            "provinceName": "福建",
            "seq": -1,
            "shortPinyin": "SM",
            "subName": ""
        },
        {
            "fromDestId": "8080",
            "id": "8080",
            "isHot": false,
            "name": "三沙",
            "pinyin": "SANSHA",
            "provinceName": "海南",
            "seq": -1,
            "shortPinyin": "SS",
            "subName": ""
        },
        {
            "fromDestId": "257",
            "id": "257",
            "isHot": true,
            "name": "三亚",
            "pinyin": "SANYA",
            "provinceName": "海南",
            "seq": 15,
            "shortPinyin": "SY",
            "subName": ""
        },
        {
            "fromDestId": 9,
            "id": 9,
            "isHot": true,
            "name": "上海",
            "pinyin": "SHANGHAI",
            "provinceName": "上海",
            "seq": 1,
            "shortPinyin": "sh",
            "subName": ""
        },
        {
            "fromDestId": "339",
            "id": "339",
            "isHot": false,
            "name": "商洛",
            "pinyin": "SHANGLUO",
            "provinceName": "陕西",
            "seq": -1,
            "shortPinyin": "SL",
            "subName": ""
        },
        {
            "fromDestId": "286",
            "id": "286",
            "isHot": false,
            "name": "商丘",
            "pinyin": "SHANGQIU",
            "provinceName": "河南",
            "seq": -1,
            "shortPinyin": "SQ",
            "subName": ""
        },
        {
            "fromDestId": "173",
            "id": "173",
            "isHot": false,
            "name": "上饶",
            "pinyin": "SHANGRAO",
            "provinceName": "江西",
            "seq": -1,
            "shortPinyin": "SR",
            "subName": ""
        },
        {
            "fromDestId": "251",
            "id": "251",
            "isHot": false,
            "name": "山南",
            "pinyin": "SHANNAN",
            "provinceName": "西藏",
            "seq": -1,
            "shortPinyin": "SN",
            "subName": ""
        },
        {
            "fromDestId": "326",
            "id": "326",
            "isHot": false,
            "name": "汕头",
            "pinyin": "SHANTOU",
            "provinceName": "广东",
            "seq": -1,
            "shortPinyin": "ST",
            "subName": ""
        },
        {
            "fromDestId": "198",
            "id": "198",
            "isHot": false,
            "name": "汕尾",
            "pinyin": "SHANWEI",
            "provinceName": "广东",
            "seq": -1,
            "shortPinyin": "SW",
            "subName": ""
        },
        {
            "fromDestId": "323",
            "id": "323",
            "isHot": false,
            "name": "韶关",
            "pinyin": "SHAOGUAN",
            "provinceName": "广东",
            "seq": -1,
            "shortPinyin": "SG",
            "subName": ""
        },
        {
            "fromDestId": "74",
            "id": "74",
            "isHot": false,
            "name": "绍兴",
            "pinyin": "SHAOXING",
            "provinceName": "浙江",
            "seq": -1,
            "shortPinyin": "SX",
            "subName": ""
        },
        {
            "fromDestId": "312",
            "id": "312",
            "isHot": false,
            "name": "邵阳",
            "pinyin": "SHAOYANG",
            "provinceName": "湖南",
            "seq": -1,
            "shortPinyin": "SY",
            "subName": ""
        },
        {
            "fromDestId": "307",
            "id": "307",
            "isHot": false,
            "name": "神农架",
            "pinyin": "SHENNONGJIA",
            "provinceName": "湖北",
            "seq": -1,
            "shortPinyin": "SNJ",
            "subName": ""
        },
        {
            "fromDestId": "123",
            "id": "123",
            "isHot": false,
            "name": "沈阳",
            "pinyin": "SHENYANG",
            "provinceName": "辽宁",
            "seq": -1,
            "shortPinyin": "SY",
            "subName": ""
        },
        {
            "fromDestId": "324",
            "id": "324",
            "isHot": true,
            "name": "深圳",
            "pinyin": "SHENZHEN",
            "provinceName": "广东",
            "seq": 14,
            "shortPinyin": "SZ",
            "subName": ""
        },
        {
            "fromDestId": "381",
            "id": "381",
            "isHot": false,
            "name": "石河子",
            "pinyin": "SHIHEZI",
            "provinceName": "新疆",
            "seq": -1,
            "shortPinyin": "SHZ",
            "subName": ""
        },
        {
            "fromDestId": "89",
            "id": "89",
            "isHot": false,
            "name": "石家庄",
            "pinyin": "SHIJIAZHUANG",
            "provinceName": "河北",
            "seq": -1,
            "shortPinyin": "SJZ",
            "subName": ""
        },
        {
            "fromDestId": "293",
            "id": "293",
            "isHot": false,
            "name": "十堰",
            "pinyin": "SHIYAN",
            "provinceName": "湖北",
            "seq": -1,
            "shortPinyin": "SY",
            "subName": ""
        },
        {
            "fromDestId": "363",
            "id": "363",
            "isHot": false,
            "name": "石嘴山",
            "pinyin": "SHIZUISHAN",
            "provinceName": "宁夏",
            "seq": -1,
            "shortPinyin": "SZS",
            "subName": ""
        },
        {
            "fromDestId": "47",
            "id": "47",
            "isHot": false,
            "name": "双鸭山",
            "pinyin": "SHUANGYASHAN",
            "provinceName": "黑龙江",
            "seq": -1,
            "shortPinyin": "SYS",
            "subName": ""
        },
        {
            "fromDestId": "105",
            "id": "105",
            "isHot": false,
            "name": "朔州",
            "pinyin": "SHUOZHOU",
            "provinceName": "山西",
            "seq": -1,
            "shortPinyin": "SZ",
            "subName": ""
        },
        {
            "fromDestId": "139",
            "id": "139",
            "isHot": false,
            "name": "四平",
            "pinyin": "SIPING",
            "provinceName": "吉林",
            "seq": -1,
            "shortPinyin": "SP",
            "subName": ""
        },
        {
            "fromDestId": "143",
            "id": "143",
            "isHot": false,
            "name": "松原",
            "pinyin": "SONGYUAN",
            "provinceName": "吉林",
            "seq": -1,
            "shortPinyin": "SY",
            "subName": ""
        },
        {
            "fromDestId": "54",
            "id": "54",
            "isHot": false,
            "name": "绥化",
            "pinyin": "SUIHUA",
            "provinceName": "黑龙江",
            "seq": -1,
            "shortPinyin": "SH",
            "subName": ""
        },
        {
            "fromDestId": "265",
            "id": "265",
            "isHot": false,
            "name": "遂宁",
            "pinyin": "SUINING",
            "provinceName": "四川",
            "seq": -1,
            "shortPinyin": "SN",
            "subName": ""
        },
        {
            "fromDestId": "302",
            "id": "302",
            "isHot": false,
            "name": "随州",
            "pinyin": "SUIZHOU",
            "provinceName": "湖北",
            "seq": -1,
            "shortPinyin": "SZ",
            "subName": ""
        },
        {
            "fromDestId": "68",
            "id": "68",
            "isHot": false,
            "name": "宿迁",
            "pinyin": "SUQIAN",
            "provinceName": "江苏",
            "seq": -1,
            "shortPinyin": "SQ",
            "subName": ""
        },
        {
            "fromDestId": "148",
            "id": "148",
            "isHot": false,
            "name": "宿州",
            "pinyin": "SUZHOU",
            "provinceName": "安徽",
            "seq": -1,
            "shortPinyin": "SZ",
            "subName": ""
        },
        {
            "fromDestId": "60",
            "id": "60",
            "isHot": true,
            "name": "苏州",
            "pinyin": "SUZHOU",
            "provinceName": "江苏",
            "seq": 2,
            "shortPinyin": "SZ",
            "subName": ""
        },
        {
            "fromDestId": "379",
            "id": "379",
            "isHot": false,
            "name": "塔城地区",
            "pinyin": "TACHENGDIQU",
            "provinceName": "新疆",
            "seq": -1,
            "shortPinyin": "TCDQ",
            "subName": ""
        },
        {
            "fromDestId": "182",
            "id": "182",
            "isHot": false,
            "name": "泰安",
            "pinyin": "TAIAN",
            "provinceName": "山东",
            "seq": -1,
            "shortPinyin": "TA",
            "subName": ""
        },
        {
            "fromDestId": "8000",
            "id": "8000",
            "isHot": false,
            "name": "台北",
            "pinyin": "TAIBEI",
            "provinceName": "台湾",
            "seq": -1,
            "shortPinyin": "TB",
            "subName": ""
        },
        {
            "fromDestId": "8017",
            "id": "8017",
            "isHot": false,
            "name": "台东县",
            "pinyin": "TAIDONG",
            "provinceName": "台湾",
            "seq": -1,
            "shortPinyin": "TD",
            "subName": ""
        },
        {
            "fromDestId": "8004",
            "id": "8004",
            "isHot": false,
            "name": "台南",
            "pinyin": "TAINAN",
            "provinceName": "台湾",
            "seq": -1,
            "shortPinyin": "TN",
            "subName": ""
        },
        {
            "fromDestId": "8015",
            "id": "8015",
            "isHot": false,
            "name": "台南县",
            "pinyin": "TAINANXIAN",
            "provinceName": "台湾",
            "seq": -1,
            "shortPinyin": "TNX",
            "subName": ""
        },
        {
            "fromDestId": "100",
            "id": "100",
            "isHot": false,
            "name": "太原",
            "pinyin": "TAIYUAN",
            "provinceName": "山西",
            "seq": -1,
            "shortPinyin": "TY",
            "subName": ""
        },
        {
            "fromDestId": "8003",
            "id": "8003",
            "isHot": false,
            "name": "台中",
            "pinyin": "TAIZHONG",
            "provinceName": "台湾",
            "seq": -1,
            "shortPinyin": "TZ",
            "subName": ""
        },
        {
            "fromDestId": "8012",
            "id": "8012",
            "isHot": false,
            "name": "台中县",
            "pinyin": "TAIZHONGXIAN",
            "provinceName": "台湾",
            "seq": -1,
            "shortPinyin": "TZX",
            "subName": ""
        },
        {
            "fromDestId": "67",
            "id": "67",
            "isHot": false,
            "name": "泰州",
            "pinyin": "TAIZHOU",
            "provinceName": "江苏",
            "seq": -1,
            "shortPinyin": "TZ",
            "subName": ""
        },
        {
            "fromDestId": "78",
            "id": "78",
            "isHot": false,
            "name": "台州",
            "pinyin": "TAIZHOU",
            "provinceName": "浙江",
            "seq": -1,
            "shortPinyin": "TZ",
            "subName": ""
        },
        {
            "fromDestId": "90",
            "id": "90",
            "isHot": false,
            "name": "唐山",
            "pinyin": "TANGSHAN",
            "provinceName": "河北",
            "seq": -1,
            "shortPinyin": "TS",
            "subName": ""
        },
        {
            "fromDestId": "8010",
            "id": "8010",
            "isHot": false,
            "name": "桃园",
            "pinyin": "TAOYUAN",
            "provinceName": "台湾",
            "seq": -1,
            "shortPinyin": "TY",
            "subName": ""
        },
        {
            "fromDestId": 14,
            "id": 14,
            "isHot": true,
            "name": "天津",
            "pinyin": "TIANJIN",
            "provinceName": "天津",
            "seq": 8,
            "shortPinyin": "tj",
            "subName": ""
        },
        {
            "fromDestId": "306",
            "id": "306",
            "isHot": false,
            "name": "天门",
            "pinyin": "TIANMEN",
            "provinceName": "湖北",
            "seq": -1,
            "shortPinyin": "TM",
            "subName": ""
        },
        {
            "fromDestId": "344",
            "id": "344",
            "isHot": false,
            "name": "天水",
            "pinyin": "TIANSHUI",
            "provinceName": "甘肃",
            "seq": -1,
            "shortPinyin": "TS",
            "subName": ""
        },
        {
            "fromDestId": "134",
            "id": "134",
            "isHot": false,
            "name": "铁岭",
            "pinyin": "TIELING",
            "provinceName": "辽宁",
            "seq": -1,
            "shortPinyin": "TL",
            "subName": ""
        },
        {
            "fromDestId": "331",
            "id": "331",
            "isHot": false,
            "name": "铜川",
            "pinyin": "TONGCHUAN",
            "provinceName": "陕西",
            "seq": -1,
            "shortPinyin": "TC",
            "subName": ""
        },
        {
            "fromDestId": "141",
            "id": "141",
            "isHot": false,
            "name": "通化",
            "pinyin": "TONGHUA",
            "provinceName": "吉林",
            "seq": -1,
            "shortPinyin": "TH",
            "subName": ""
        },
        {
            "fromDestId": "115",
            "id": "115",
            "isHot": false,
            "name": "通辽",
            "pinyin": "TONGLIAO",
            "provinceName": "内蒙古",
            "seq": -1,
            "shortPinyin": "TL",
            "subName": ""
        },
        {
            "fromDestId": "86",
            "id": "86",
            "isHot": false,
            "name": "铜陵",
            "pinyin": "TONGLING",
            "provinceName": "安徽",
            "seq": -1,
            "shortPinyin": "TL",
            "subName": ""
        },
        {
            "fromDestId": "228",
            "id": "228",
            "isHot": false,
            "name": "铜仁",
            "pinyin": "TONGREN",
            "provinceName": "贵州",
            "seq": -1,
            "shortPinyin": "TR",
            "subName": ""
        },
        {
            "fromDestId": "369",
            "id": "369",
            "isHot": false,
            "name": "吐鲁番",
            "pinyin": "TULUFAN",
            "provinceName": "新疆",
            "seq": -1,
            "shortPinyin": "TLF",
            "subName": ""
        },
        {
            "fromDestId": "383",
            "id": "383",
            "isHot": false,
            "name": "图木舒克",
            "pinyin": "TUMUSHUKE",
            "provinceName": "新疆",
            "seq": -1,
            "shortPinyin": "TMSK",
            "subName": ""
        },
        {
            "fromDestId": "180",
            "id": "180",
            "isHot": false,
            "name": "潍坊",
            "pinyin": "WEIFANG",
            "provinceName": "山东",
            "seq": -1,
            "shortPinyin": "WF",
            "subName": ""
        },
        {
            "fromDestId": "183",
            "id": "183",
            "isHot": false,
            "name": "威海",
            "pinyin": "WEIHAI",
            "provinceName": "山东",
            "seq": -1,
            "shortPinyin": "WH",
            "subName": ""
        },
        {
            "fromDestId": "334",
            "id": "334",
            "isHot": false,
            "name": "渭南",
            "pinyin": "WEINAN",
            "provinceName": "陕西",
            "seq": -1,
            "shortPinyin": "WN",
            "subName": ""
        },
        {
            "fromDestId": "243",
            "id": "243",
            "isHot": false,
            "name": "文山",
            "pinyin": "WENSHAN",
            "provinceName": "云南",
            "seq": -1,
            "shortPinyin": "WS",
            "subName": ""
        },
        {
            "fromDestId": "71",
            "id": "71",
            "isHot": false,
            "name": "温州",
            "pinyin": "WENZHOU",
            "provinceName": "浙江",
            "seq": -1,
            "shortPinyin": "WZ",
            "subName": ""
        },
        {
            "fromDestId": "113",
            "id": "113",
            "isHot": false,
            "name": "乌海",
            "pinyin": "WUHAI",
            "provinceName": "内蒙古",
            "seq": -1,
            "shortPinyin": "WH",
            "subName": ""
        },
        {
            "fromDestId": "291",
            "id": "291",
            "isHot": false,
            "name": "武汉",
            "pinyin": "WUHAN",
            "provinceName": "湖北",
            "seq": -1,
            "shortPinyin": "WH",
            "subName": ""
        },
        {
            "fromDestId": "81",
            "id": "81",
            "isHot": false,
            "name": "芜湖",
            "pinyin": "WUHU",
            "provinceName": "安徽",
            "seq": -1,
            "shortPinyin": "WH",
            "subName": ""
        },
        {
            "fromDestId": "384",
            "id": "384",
            "isHot": false,
            "name": "五家渠",
            "pinyin": "WUJIAQU",
            "provinceName": "新疆",
            "seq": -1,
            "shortPinyin": "WJQ",
            "subName": ""
        },
        {
            "fromDestId": "119",
            "id": "119",
            "isHot": false,
            "name": "乌兰察布",
            "pinyin": "WULANCHABU",
            "provinceName": "内蒙古",
            "seq": -1,
            "shortPinyin": "WLCB",
            "subName": ""
        },
        {
            "fromDestId": "367",
            "id": "367",
            "isHot": false,
            "name": "乌鲁木齐",
            "pinyin": "WULUMUQI",
            "provinceName": "新疆",
            "seq": -1,
            "shortPinyin": "WLMQ",
            "subName": ""
        },
        {
            "fromDestId": "345",
            "id": "345",
            "isHot": false,
            "name": "武威",
            "pinyin": "WUWEI",
            "provinceName": "甘肃",
            "seq": -1,
            "shortPinyin": "WW",
            "subName": ""
        },
        {
            "fromDestId": "57",
            "id": "57",
            "isHot": true,
            "name": "无锡",
            "pinyin": "WUXI",
            "provinceName": "江苏",
            "seq": 5,
            "shortPinyin": "WX",
            "subName": ""
        },
        {
            "fromDestId": "364",
            "id": "364",
            "isHot": false,
            "name": "吴忠",
            "pinyin": "WUZHONG",
            "provinceName": "宁夏",
            "seq": -1,
            "shortPinyin": "WZ",
            "subName": ""
        },
        {
            "fromDestId": "210",
            "id": "210",
            "isHot": false,
            "name": "梧州",
            "pinyin": "WUZHOU",
            "provinceName": "广西",
            "seq": -1,
            "shortPinyin": "WZ",
            "subName": ""
        },
        {
            "fromDestId": "155",
            "id": "155",
            "isHot": false,
            "name": "厦门",
            "pinyin": "XIAMEN",
            "provinceName": "福建",
            "seq": -1,
            "shortPinyin": "XM",
            "subName": ""
        },
        {
            "fromDestId": "256",
            "id": "256",
            "isHot": false,
            "name": "西安",
            "pinyin": "XIAN",
            "provinceName": "陕西",
            "seq": -1,
            "shortPinyin": "XA",
            "subName": ""
        },
        {
            "fromDestId": "295",
            "id": "295",
            "isHot": false,
            "name": "襄阳",
            "pinyin": "XIANGFAN",
            "provinceName": "湖北",
            "seq": -1,
            "shortPinyin": "XF",
            "subName": ""
        },
        {
            "fromDestId": "40",
            "id": "40",
            "isHot": false,
            "name": "香港",
            "pinyin": "XIANGGANG",
            "provinceName": "香港",
            "seq": -1,
            "shortPinyin": "XG",
            "subName": ""
        },
        {
            "fromDestId": "310",
            "id": "310",
            "isHot": false,
            "name": "湘潭",
            "pinyin": "XIANGTAN",
            "provinceName": "湖南",
            "seq": -1,
            "shortPinyin": "XT",
            "subName": ""
        },
        {
            "fromDestId": "321",
            "id": "321",
            "isHot": false,
            "name": "湘西",
            "pinyin": "XIANGXI",
            "provinceName": "湖南",
            "seq": -1,
            "shortPinyin": "XX",
            "subName": ""
        },
        {
            "fromDestId": "301",
            "id": "301",
            "isHot": false,
            "name": "咸宁",
            "pinyin": "XIANNING",
            "provinceName": "湖北",
            "seq": -1,
            "shortPinyin": "XN",
            "subName": ""
        },
        {
            "fromDestId": "304",
            "id": "304",
            "isHot": false,
            "name": "仙桃",
            "pinyin": "XIANTAO",
            "provinceName": "湖北",
            "seq": -1,
            "shortPinyin": "XT",
            "subName": ""
        },
        {
            "fromDestId": "333",
            "id": "333",
            "isHot": false,
            "name": "咸阳",
            "pinyin": "XIANYANG",
            "provinceName": "陕西",
            "seq": -1,
            "shortPinyin": "XY",
            "subName": ""
        },
        {
            "fromDestId": "298",
            "id": "298",
            "isHot": false,
            "name": "孝感",
            "pinyin": "XIAOGAN",
            "provinceName": "湖北",
            "seq": -1,
            "shortPinyin": "XG",
            "subName": ""
        },
        {
            "fromDestId": "121",
            "id": "121",
            "isHot": false,
            "name": "锡林郭勒盟",
            "pinyin": "XILINGUOLEMENG",
            "provinceName": "内蒙古",
            "seq": -1,
            "shortPinyin": "XLGLM",
            "subName": ""
        },
        {
            "fromDestId": "120",
            "id": "120",
            "isHot": false,
            "name": "兴安盟",
            "pinyin": "XINGANMENG",
            "provinceName": "内蒙古",
            "seq": -1,
            "shortPinyin": "XAM",
            "subName": ""
        },
        {
            "fromDestId": "93",
            "id": "93",
            "isHot": false,
            "name": "邢台",
            "pinyin": "XINGTAI",
            "provinceName": "河北",
            "seq": -1,
            "shortPinyin": "XT",
            "subName": ""
        },
        {
            "fromDestId": "354",
            "id": "354",
            "isHot": false,
            "name": "西宁",
            "pinyin": "XINING",
            "provinceName": "青海",
            "seq": -1,
            "shortPinyin": "XN",
            "subName": ""
        },
        {
            "fromDestId": "279",
            "id": "279",
            "isHot": false,
            "name": "新乡",
            "pinyin": "XINXIANG",
            "provinceName": "河南",
            "seq": -1,
            "shortPinyin": "XX",
            "subName": ""
        },
        {
            "fromDestId": "287",
            "id": "287",
            "isHot": false,
            "name": "信阳",
            "pinyin": "XINYANG",
            "provinceName": "河南",
            "seq": -1,
            "shortPinyin": "XY",
            "subName": ""
        },
        {
            "fromDestId": "167",
            "id": "167",
            "isHot": false,
            "name": "新余",
            "pinyin": "XINYU",
            "provinceName": "江西",
            "seq": -1,
            "shortPinyin": "XY",
            "subName": ""
        },
        {
            "fromDestId": "108",
            "id": "108",
            "isHot": false,
            "name": "忻州",
            "pinyin": "XINZHOU",
            "provinceName": "山西",
            "seq": -1,
            "shortPinyin": "XZ",
            "subName": ""
        },
        {
            "fromDestId": "8005",
            "id": "8005",
            "isHot": false,
            "name": "新竹",
            "pinyin": "XINZHU",
            "provinceName": "台湾",
            "seq": -1,
            "shortPinyin": "XZ",
            "subName": ""
        },
        {
            "fromDestId": "8009",
            "id": "8009",
            "isHot": false,
            "name": "新竹县",
            "pinyin": "XINZHUXIAN",
            "provinceName": "台湾",
            "seq": -1,
            "shortPinyin": "XZX",
            "subName": ""
        },
        {
            "fromDestId": "244",
            "id": "244",
            "isHot": false,
            "name": "西双版纳",
            "pinyin": "XISHUANGBANNA",
            "provinceName": "云南",
            "seq": -1,
            "shortPinyin": "XSBN",
            "subName": ""
        },
        {
            "fromDestId": "153",
            "id": "153",
            "isHot": false,
            "name": "宣城",
            "pinyin": "XUANCHENG",
            "provinceName": "安徽",
            "seq": -1,
            "shortPinyin": "XC",
            "subName": ""
        },
        {
            "fromDestId": "282",
            "id": "282",
            "isHot": false,
            "name": "许昌",
            "pinyin": "XUCHANG",
            "provinceName": "河南",
            "seq": -1,
            "shortPinyin": "XC",
            "subName": ""
        },
        {
            "fromDestId": "58",
            "id": "58",
            "isHot": false,
            "name": "徐州",
            "pinyin": "XUZHOU",
            "provinceName": "江苏",
            "seq": -1,
            "shortPinyin": "XZ",
            "subName": ""
        },
        {
            "fromDestId": "273",
            "id": "273",
            "isHot": false,
            "name": "雅安",
            "pinyin": "YAAN",
            "provinceName": "四川",
            "seq": -1,
            "shortPinyin": "YA",
            "subName": ""
        },
        {
            "fromDestId": "335",
            "id": "335",
            "isHot": false,
            "name": "延安",
            "pinyin": "YANAN",
            "provinceName": "陕西",
            "seq": -1,
            "shortPinyin": "YA",
            "subName": ""
        },
        {
            "fromDestId": "145",
            "id": "145",
            "isHot": false,
            "name": "延边",
            "pinyin": "YANBIAN",
            "provinceName": "吉林",
            "seq": -1,
            "shortPinyin": "YB",
            "subName": ""
        },
        {
            "fromDestId": "64",
            "id": "64",
            "isHot": false,
            "name": "盐城",
            "pinyin": "YANCHENG",
            "provinceName": "江苏",
            "seq": -1,
            "shortPinyin": "YC",
            "subName": ""
        },
        {
            "fromDestId": "200",
            "id": "200",
            "isHot": false,
            "name": "阳江",
            "pinyin": "YANGJIANG",
            "provinceName": "广东",
            "seq": -1,
            "shortPinyin": "YJ",
            "subName": ""
        },
        {
            "fromDestId": "102",
            "id": "102",
            "isHot": false,
            "name": "阳泉",
            "pinyin": "YANGQUAN",
            "provinceName": "山西",
            "seq": -1,
            "shortPinyin": "YQ",
            "subName": ""
        },
        {
            "fromDestId": "65",
            "id": "65",
            "isHot": false,
            "name": "扬州",
            "pinyin": "YANGZHOU",
            "provinceName": "江苏",
            "seq": -1,
            "shortPinyin": "YZ",
            "subName": ""
        },
        {
            "fromDestId": "179",
            "id": "179",
            "isHot": false,
            "name": "烟台",
            "pinyin": "YANTAI",
            "provinceName": "山东",
            "seq": -1,
            "shortPinyin": "YT",
            "subName": ""
        },
        {
            "fromDestId": "270",
            "id": "270",
            "isHot": false,
            "name": "宜宾",
            "pinyin": "YIBIN",
            "provinceName": "四川",
            "seq": -1,
            "shortPinyin": "YB",
            "subName": ""
        },
        {
            "fromDestId": "294",
            "id": "294",
            "isHot": false,
            "name": "宜昌",
            "pinyin": "YICHANG",
            "provinceName": "湖北",
            "seq": -1,
            "shortPinyin": "YC",
            "subName": ""
        },
        {
            "fromDestId": "49",
            "id": "49",
            "isHot": false,
            "name": "伊春",
            "pinyin": "YICHUN",
            "provinceName": "黑龙江",
            "seq": -1,
            "shortPinyin": "YC",
            "subName": ""
        },
        {
            "fromDestId": "171",
            "id": "171",
            "isHot": false,
            "name": "宜春",
            "pinyin": "YICHUN",
            "provinceName": "江西",
            "seq": -1,
            "shortPinyin": "YC",
            "subName": ""
        },
        {
            "fromDestId": "8008",
            "id": "8008",
            "isHot": false,
            "name": "宜兰县",
            "pinyin": "YILAN",
            "provinceName": "台湾",
            "seq": -1,
            "shortPinyin": "YL",
            "subName": ""
        },
        {
            "fromDestId": "378",
            "id": "378",
            "isHot": false,
            "name": "伊犁",
            "pinyin": "YILI",
            "provinceName": "新疆",
            "seq": -1,
            "shortPinyin": "YL",
            "subName": ""
        },
        {
            "fromDestId": "362",
            "id": "362",
            "isHot": false,
            "name": "银川",
            "pinyin": "YINCHUAN",
            "provinceName": "宁夏",
            "seq": -1,
            "shortPinyin": "YC",
            "subName": ""
        },
        {
            "fromDestId": "130",
            "id": "130",
            "isHot": false,
            "name": "营口",
            "pinyin": "YINGKOU",
            "provinceName": "辽宁",
            "seq": -1,
            "shortPinyin": "YK",
            "subName": ""
        },
        {
            "fromDestId": "168",
            "id": "168",
            "isHot": false,
            "name": "鹰潭",
            "pinyin": "YINGTAN",
            "provinceName": "江西",
            "seq": -1,
            "shortPinyin": "YT",
            "subName": ""
        },
        {
            "fromDestId": "316",
            "id": "316",
            "isHot": false,
            "name": "益阳",
            "pinyin": "YIYANG",
            "provinceName": "湖南",
            "seq": -1,
            "shortPinyin": "YY",
            "subName": ""
        },
        {
            "fromDestId": "318",
            "id": "318",
            "isHot": false,
            "name": "永州",
            "pinyin": "YONGZHOU",
            "provinceName": "湖南",
            "seq": -1,
            "shortPinyin": "YZ",
            "subName": ""
        },
        {
            "fromDestId": "313",
            "id": "313",
            "isHot": false,
            "name": "岳阳",
            "pinyin": "YUEYANG",
            "provinceName": "湖南",
            "seq": -1,
            "shortPinyin": "YY",
            "subName": ""
        },
        {
            "fromDestId": "215",
            "id": "215",
            "isHot": false,
            "name": "玉林",
            "pinyin": "YULIN",
            "provinceName": "广西",
            "seq": -1,
            "shortPinyin": "YL",
            "subName": ""
        },
        {
            "fromDestId": "337",
            "id": "337",
            "isHot": false,
            "name": "榆林",
            "pinyin": "YULIN",
            "provinceName": "陕西",
            "seq": -1,
            "shortPinyin": "YL",
            "subName": ""
        },
        {
            "fromDestId": "107",
            "id": "107",
            "isHot": false,
            "name": "运城",
            "pinyin": "YUNCHENG",
            "provinceName": "山西",
            "seq": -1,
            "shortPinyin": "YC",
            "subName": ""
        },
        {
            "fromDestId": "206",
            "id": "206",
            "isHot": false,
            "name": "云浮",
            "pinyin": "YUNFU",
            "provinceName": "广东",
            "seq": -1,
            "shortPinyin": "YF",
            "subName": ""
        },
        {
            "fromDestId": "8014",
            "id": "8014",
            "isHot": false,
            "name": "云林县",
            "pinyin": "YUNLIN",
            "provinceName": "台湾",
            "seq": -1,
            "shortPinyin": "YL",
            "subName": ""
        },
        {
            "fromDestId": "360",
            "id": "360",
            "isHot": false,
            "name": "玉树",
            "pinyin": "YUSHU",
            "provinceName": "青海",
            "seq": -1,
            "shortPinyin": "YS",
            "subName": ""
        },
        {
            "fromDestId": "235",
            "id": "235",
            "isHot": false,
            "name": "玉溪",
            "pinyin": "YUXI",
            "provinceName": "云南",
            "seq": -1,
            "shortPinyin": "YX",
            "subName": ""
        },
        {
            "fromDestId": "177",
            "id": "177",
            "isHot": false,
            "name": "枣庄",
            "pinyin": "ZAOZHUANG",
            "provinceName": "山东",
            "seq": -1,
            "shortPinyin": "ZZ",
            "subName": ""
        },
        {
            "fromDestId": "8013",
            "id": "8013",
            "isHot": false,
            "name": "彰化县",
            "pinyin": "ZHANGHUA",
            "provinceName": "台湾",
            "seq": -1,
            "shortPinyin": "ZH",
            "subName": ""
        },
        {
            "fromDestId": "315",
            "id": "315",
            "isHot": false,
            "name": "张家界",
            "pinyin": "ZHANGJIAJIE",
            "provinceName": "湖南",
            "seq": -1,
            "shortPinyin": "ZJJ",
            "subName": ""
        },
        {
            "fromDestId": "95",
            "id": "95",
            "isHot": false,
            "name": "张家口",
            "pinyin": "ZHANGJIAKOU",
            "provinceName": "河北",
            "seq": -1,
            "shortPinyin": "ZJK",
            "subName": ""
        },
        {
            "fromDestId": "346",
            "id": "346",
            "isHot": false,
            "name": "张掖",
            "pinyin": "ZHANGYE",
            "provinceName": "甘肃",
            "seq": -1,
            "shortPinyin": "ZY",
            "subName": ""
        },
        {
            "fromDestId": "159",
            "id": "159",
            "isHot": false,
            "name": "漳州",
            "pinyin": "ZHANGZHOU",
            "provinceName": "福建",
            "seq": -1,
            "shortPinyin": "ZZ",
            "subName": ""
        },
        {
            "fromDestId": "329",
            "id": "329",
            "isHot": false,
            "name": "湛江",
            "pinyin": "ZHANJIANG",
            "provinceName": "广东",
            "seq": -1,
            "shortPinyin": "ZJ",
            "subName": ""
        },
        {
            "fromDestId": "195",
            "id": "195",
            "isHot": false,
            "name": "肇庆",
            "pinyin": "ZHAOQING",
            "provinceName": "广东",
            "seq": -1,
            "shortPinyin": "ZQ",
            "subName": ""
        },
        {
            "fromDestId": "237",
            "id": "237",
            "isHot": false,
            "name": "昭通",
            "pinyin": "ZHAOTONG",
            "provinceName": "云南",
            "seq": -1,
            "shortPinyin": "ZT",
            "subName": ""
        },
        {
            "fromDestId": "191",
            "id": "191",
            "isHot": false,
            "name": "郑州",
            "pinyin": "ZHENGZHOU",
            "provinceName": "河南",
            "seq": -1,
            "shortPinyin": "ZZ",
            "subName": ""
        },
        {
            "fromDestId": "66",
            "id": "66",
            "isHot": false,
            "name": "镇江",
            "pinyin": "ZHENJIANG",
            "provinceName": "江苏",
            "seq": -1,
            "shortPinyin": "ZJ",
            "subName": ""
        },
        {
            "fromDestId": "203",
            "id": "203",
            "isHot": false,
            "name": "中山",
            "pinyin": "ZHONGSHAN",
            "provinceName": "广东",
            "seq": -1,
            "shortPinyin": "ZS",
            "subName": ""
        },
        {
            "fromDestId": "366",
            "id": "366",
            "isHot": false,
            "name": "中卫",
            "pinyin": "ZHONGWEI",
            "provinceName": "宁夏",
            "seq": -1,
            "shortPinyin": "ZW",
            "subName": ""
        },
        {
            "fromDestId": "288",
            "id": "288",
            "isHot": false,
            "name": "周口",
            "pinyin": "ZHOUKOU",
            "provinceName": "河南",
            "seq": -1,
            "shortPinyin": "ZK",
            "subName": ""
        },
        {
            "fromDestId": "77",
            "id": "77",
            "isHot": false,
            "name": "舟山",
            "pinyin": "ZHOUSHAN",
            "provinceName": "浙江",
            "seq": -1,
            "shortPinyin": "ZS",
            "subName": ""
        },
        {
            "fromDestId": "325",
            "id": "325",
            "isHot": false,
            "name": "珠海",
            "pinyin": "ZHUHAI",
            "provinceName": "广东",
            "seq": -1,
            "shortPinyin": "ZH",
            "subName": ""
        },
        {
            "fromDestId": "289",
            "id": "289",
            "isHot": false,
            "name": "驻马店",
            "pinyin": "ZHUMADIAN",
            "provinceName": "河南",
            "seq": -1,
            "shortPinyin": "ZMD",
            "subName": ""
        },
        {
            "fromDestId": "309",
            "id": "309",
            "isHot": false,
            "name": "株洲",
            "pinyin": "ZHUZHOU",
            "provinceName": "湖南",
            "seq": -1,
            "shortPinyin": "ZZ",
            "subName": ""
        },
        {
            "fromDestId": "176",
            "id": "176",
            "isHot": false,
            "name": "淄博",
            "pinyin": "ZIBO",
            "provinceName": "山东",
            "seq": -1,
            "shortPinyin": "ZB",
            "subName": ""
        },
        {
            "fromDestId": "259",
            "id": "259",
            "isHot": false,
            "name": "自贡",
            "pinyin": "ZIGONG",
            "provinceName": "四川",
            "seq": -1,
            "shortPinyin": "ZG",
            "subName": ""
        },
        {
            "fromDestId": "275",
            "id": "275",
            "isHot": false,
            "name": "资阳",
            "pinyin": "ZIYANG",
            "provinceName": "四川",
            "seq": -1,
            "shortPinyin": "ZY",
            "subName": ""
        },
        {
            "fromDestId": "226",
            "id": "226",
            "isHot": false,
            "name": "遵义",
            "pinyin": "ZUNYI",
            "provinceName": "贵州",
            "seq": -1,
            "shortPinyin": "ZY",
            "subName": ""
        }
    ]
}